STARLINK-30616          
1 58105U 23161J   26068.49283702  .00002036  00000+0  80880-4 0  9997
2 58105  53.1589 153.3388 0001094 105.5199 254.5922 15.30188143134569
TOMORROW-S2             
1 60485U 24149T   26068.75188364  .00008133  00000+0  27683-3 0  9990
2 60485  97.3857 150.0385 0001648 234.3331 125.7757 15.30674935 86869
